start=new Date('2023-05-18T00:00:00.000Z').valueOf();
sats=[{"CENTER_NAME":"EARTH","REV_AT_EPOCH":"12143","MEAN_ANOMALY":"284.3708","COUNTRY_CODE":"US","ARG_OF_PERICENTER":"75.7405","INCLINATION":"53.0533","ECCENTRICITY":"0.00011260","SEMIMAJOR_AXIS":"6925.327","TLE_LINE2":"2 47876  53.0533 201.1435 0001126  75.7405 284.3708 15.06407114121439","OBJECT_ID":"2021-021S","OBJECT_TYPE":"PAYLOAD","OBJECT_NAME":"STARLINK-2332","TIME_SYSTEM":"UTC","PERIAPSIS":"546.412","ELEMENT_SET_NO":"999","APOAPSIS":"547.972","REF_FRAME":"TEME","NORAD_CAT_ID":"47876","EPHEMERIS_TYPE":"0","EPOCH":"2023-05-17T21:08:43.897632","TLE_LINE1":"1 47876U 21021S   23137.88106363  .00005547  00000-0  39089-3 0  9992","BSTAR":"0.00039089000000","MEAN_ELEMENT_THEORY":"SGP4","FILE":"3910633","RCS_SIZE":"LARGE","DECAY_DATE":null,"RA_OF_ASC_NODE":"201.1435","MEAN_MOTION_DOT":"0.00005547","MEAN_MOTION":"15.06407114","GP_ID":"232042251","MEAN_MOTION_DDOT":"0.0000000000000","PERIOD":"95.592","CLASSIFICATION_TYPE":"U","SITE":"AFETR","LAUNCH_DATE":"2021-03-14"},{"ECCENTRICITY":"0.00010170","INCLINATION":"53.0520","ARG_OF_PERICENTER":"87.7032","COUNTRY_CODE":"US","MEAN_ANOMALY":"272.4073","REV_AT_EPOCH":"12142","CENTER_NAME":"EARTH","PERIAPSIS":"546.506","TIME_SYSTEM":"UTC","OBJECT_NAME":"STARLINK-2333","OBJECT_TYPE":"PAYLOAD","OBJECT_ID":"2021-021T","TLE_LINE2":"2 47877  53.0520 201.0706 0001017  87.7032 272.4073 15.06401192121426","SEMIMAJOR_AXIS":"6925.345","APOAPSIS":"547.914","ELEMENT_SET_NO":"999","MEAN_ELEMENT_THEORY":"SGP4","TLE_LINE1":"1 47877U 21021T   23137.89581034  .00003366  00000-0  24473-3 0  9994","BSTAR":"0.00024473000000","EPHEMERIS_TYPE":"0","EPOCH":"2023-05-17T21:29:58.013376","REF_FRAME":"TEME","NORAD_CAT_ID":"47877","RA_OF_ASC_NODE":"201.0706","DECAY_DATE":null,"RCS_SIZE":"LARGE","FILE":"3910633","MEAN_MOTION":"15.06401192","MEAN_MOTION_DOT":"0.00003366","CLASSIFICATION_TYPE":"U","SITE":"AFETR","PERIOD":"95.592","GP_ID":"232042503","MEAN_MOTION_DDOT":"0.0000000000000","LAUNCH_DATE":"2021-03-14"},{"APOAPSIS":"548.193","ELEMENT_SET_NO":"999","MEAN_ELEMENT_THEORY":"SGP4","REF_FRAME":"TEME","NORAD_CAT_ID":"47878","EPOCH":"2023-05-17T13:48:12.834720","EPHEMERIS_TYPE":"0","TLE_LINE1":"1 47878U 21021U   23137.57514855  .00021591  00000-0  14639-2 0  9999","BSTAR":"0.00146390000000","ARG_OF_PERICENTER":"56.5412","COUNTRY_CODE":"US","INCLINATION":"53.0528","ECCENTRICITY":"0.00014200","CENTER_NAME":"EARTH","MEAN_ANOMALY":"303.5713","REV_AT_EPOCH":"12117","OBJECT_TYPE":"PAYLOAD","OBJECT_NAME":"STARLINK-2335","TIME_SYSTEM":"UTC","PERIAPSIS":"546.226","SEMIMAJOR_AXIS":"6925.345","TLE_LINE2":"2 47878  53.0528 202.5180 0001420  56.5412 303.5713 15.06401204121174","OBJECT_ID":"2021-021U","SITE":"AFETR","CLASSIFICATION_TYPE":"U","GP_ID":"232043253","MEAN_MOTION_DDOT":"0.0000000000000","PERIOD":"95.592","LAUNCH_DATE":"2021-03-14","RCS_SIZE":"LARGE","DECAY_DATE":null,"RA_OF_ASC_NODE":"202.5180","FILE":"3910633","MEAN_MOTION":"15.06401204","MEAN_MOTION_DOT":"0.00021591"},{"REV_AT_EPOCH":"12132","MEAN_ANOMALY":"312.6312","CENTER_NAME":"EARTH","COUNTRY_CODE":"US","ARG_OF_PERICENTER":"47.4784","ECCENTRICITY":"0.00012680","INCLINATION":"53.0536","OBJECT_ID":"2021-021V","SEMIMAJOR_AXIS":"6925.329","TLE_LINE2":"2 47879  53.0536 218.1218 0001268  47.4784 312.6312 15.06406419121326","OBJECT_TYPE":"PAYLOAD","TIME_SYSTEM":"UTC","PERIAPSIS":"546.316","OBJECT_NAME":"STARLINK-2336","ELEMENT_SET_NO":"999","APOAPSIS":"548.072","NORAD_CAT_ID":"47879","REF_FRAME":"TEME","BSTAR":"0.00091313000000","TLE_LINE1":"1 47879U 21021V   23137.43921746  .00013348  00000-0  91313-3 0  9992","EPOCH":"2023-05-17T10:32:28.388544","EPHEMERIS_TYPE":"0","MEAN_ELEMENT_THEORY":"SGP4","FILE":"3910633","RA_OF_ASC_NODE":"218.1218","RCS_SIZE":"LARGE","DECAY_DATE":null,"MEAN_MOTION_DOT":"0.00013348","MEAN_MOTION":"15.06406419","GP_ID":"232041502","MEAN_MOTION_DDOT":"0.0000000000000","PERIOD":"95.592","CLASSIFICATION_TYPE":"U","SITE":"AFETR","LAUNCH_DATE":"2021-03-14"},{"APOAPSIS":"548.080","ELEMENT_SET_NO":"999","MEAN_ELEMENT_THEORY":"SGP4","NORAD_CAT_ID":"47880","REF_FRAME":"TEME","TLE_LINE1":"1 47880U 21021W   23137.61107259  .00013182  00000-0  90185-3 0  9991","BSTAR":"0.00090185000000","EPOCH":"2023-05-17T14:39:56.671776","EPHEMERIS_TYPE":"0","COUNTRY_CODE":"US","ARG_OF_PERICENTER":"65.3687","ECCENTRICITY":"0.00013190","INCLINATION":"53.0531","REV_AT_EPOCH":"12124","MEAN_ANOMALY":"294.7439","CENTER_NAME":"EARTH","OBJECT_TYPE":"PAYLOAD","PERIAPSIS":"546.254","TIME_SYSTEM":"UTC","OBJECT_NAME":"STARLINK-2337","OBJECT_ID":"2021-021W","SEMIMAJOR_AXIS":"6925.302","TLE_LINE2":"2 47880  53.0531 212.3505 0001319  65.3687 294.7439 15.06415197121240","CLASSIFICATION_TYPE":"U","SITE":"AFETR","GP_ID":"232041752","MEAN_MOTION_DDOT":"0.0000000000000","PERIOD":"95.591","LAUNCH_DATE":"2021-03-14","RA_OF_ASC_NODE":"212.3505","RCS_SIZE":"LARGE","DECAY_DATE":null,"FILE":"3910633","MEAN_MOTION":"15.06415197","MEAN_MOTION_DOT":"0.00013182"},{"RCS_SIZE":"LARGE","DECAY_DATE":null,"RA_OF_ASC_NODE":"211.0482","FILE":"3910633","MEAN_MOTION":"15.06396744","MEAN_MOTION_DOT":"0.00003047","SITE":"AFETR","CLASSIFICATION_TYPE":"U","PERIOD":"95.592","MEAN_MOTION_DDOT":"0.0000000000000","GP_ID":"232043003","LAUNCH_DATE":"2021-03-14","INCLINATION":"53.0544","ECCENTRICITY":"0.00018980","COUNTRY_CODE":"US","ARG_OF_PERICENTER":"105.3072","CENTER_NAME":"EARTH","REV_AT_EPOCH":"12125","MEAN_ANOMALY":"254.8127","OBJECT_NAME":"STARLINK-2339","PERIAPSIS":"545.909","TIME_SYSTEM":"UTC","OBJECT_TYPE":"PAYLOAD","SEMIMAJOR_AXIS":"6925.359","TLE_LINE2":"2 47881  53.0544 211.0482 0001898 105.3072 254.8127 15.06396744121258","OBJECT_ID":"2021-021X","APOAPSIS":"548.538","ELEMENT_SET_NO":"999","MEAN_ELEMENT_THEORY":"SGP4","EPHEMERIS_TYPE":"0","EPOCH":"2023-05-17T21:39:15.731424","BSTAR":"0.00022340000000","TLE_LINE1":"1 47881U 21021X   23137.90226541  .00003047  00000-0  22340-3 0  9997","NORAD_CAT_ID":"47881","REF_FRAME":"TEME"},{"LAUNCH_DATE":"2021-03-14","PERIOD":"95.592","MEAN_MOTION_DDOT":"0.0000000000000","GP_ID":"232042754","CLASSIFICATION_TYPE":"U","SITE":"AFETR","MEAN_MOTION_DOT":"0.00004442","MEAN_MOTION":"15.06408677","FILE":"3910633","RA_OF_ASC_NODE":"201.1562","DECAY_DATE":null,"RCS_SIZE":"LARGE","TLE_LINE1":"1 47882U 21021Y   23137.87738564  .00004442  00000-0  31684-3 0  9998","BSTAR":"0.00031684000000","EPHEMERIS_TYPE":"0","EPOCH":"2023-05-17T21:03:26.119296","NORAD_CAT_ID":"47882","REF_FRAME":"TEME","MEAN_ELEMENT_THEORY":"SGP4","ELEMENT_SET_NO":"999","APOAPSIS":"547.990","OBJECT_ID":"2021-021Y","TLE_LINE2":"2 47882  53.0527 201.1562 0001160  66.2262 293.8848 15.06408677121596","SEMIMAJOR_AXIS":"6925.322","PERIAPSIS":"546.384","TIME_SYSTEM":"UTC","OBJECT_NAME":"STARLINK-2340","OBJECT_TYPE":"PAYLOAD","REV_AT_EPOCH":"12159","MEAN_ANOMALY":"293.8848","CENTER_NAME":"EARTH","ECCENTRICITY":"0.00011600","INCLINATION":"53.0527","COUNTRY_CODE":"US","ARG_OF_PERICENTER":"66.2262"},{"NORAD_CAT_ID":"47883","REF_FRAME":"TEME","EPHEMERIS_TYPE":"0","EPOCH":"2023-05-17T12:25:15.614976","BSTAR":"0.00082352000000","TLE_LINE1":"1 47883U 21021Z   23137.51754184  .00012015  00000-0  82352-3 0  9999","MEAN_ELEMENT_THEORY":"SGP4","ELEMENT_SET_NO":"999","APOAPSIS":"547.835","SEMIMAJOR_AXIS":"6925.267","TLE_LINE2":"2 47883  53.0530 207.7705 0001015  53.1820 306.9262 15.06426548121476","OBJECT_ID":"2021-021Z","OBJECT_TYPE":"PAYLOAD","OBJECT_NAME":"STARLINK-2342","PERIAPSIS":"546.429","TIME_SYSTEM":"UTC","CENTER_NAME":"EARTH","MEAN_ANOMALY":"306.9262","REV_AT_EPOCH":"12147","COUNTRY_CODE":"US","ARG_OF_PERICENTER":"53.1820","INCLINATION":"53.0530","ECCENTRICITY":"0.00010150","LAUNCH_DATE":"2021-03-14","GP_ID":"232042002","MEAN_MOTION_DDOT":"0.0000000000000","PERIOD":"95.590","CLASSIFICATION_TYPE":"U","SITE":"AFETR","MEAN_MOTION_DOT":"0.00012015","MEAN_MOTION":"15.06426548","FILE":"3910633","DECAY_DATE":null,"RCS_SIZE":"LARGE","RA_OF_ASC_NODE":"207.7705"},{"GP_ID":"232042252","MEAN_MOTION_DDOT":"0.0000000000000","PERIOD":"95.592","SITE":"AFETR","CLASSIFICATION_TYPE":"U","LAUNCH_DATE":"2021-03-14","FILE":"3910633","RA_OF_ASC_NODE":"211.0580","DECAY_DATE":null,"RCS_SIZE":"LARGE","MEAN_MOTION_DOT":"0.00004870","MEAN_MOTION":"15.06404383","ELEMENT_SET_NO":"999","APOAPSIS":"548.145","NORAD_CAT_ID":"47884","REF_FRAME":"TEME","TLE_LINE1":"1 47884U 21021AA  23137.89857589  .00004870  00000-0  34554-3 0  9995","BSTAR":"0.00034554000000","EPHEMERIS_TYPE":"0","EPOCH":"2023-05-17T21:33:56.956896","MEAN_ELEMENT_THEORY":"SGP4","REV_AT_EPOCH":"12128","MEAN_ANOMALY":"309.6018","CENTER_NAME":"EARTH","ARG_OF_PERICENTER":"50.5091","COUNTRY_CODE":"US","ECCENTRICITY":"0.00013640","INCLINATION":"53.0542","OBJECT_ID":"2021-021AA","SEMIMAJOR_AXIS":"6925.335","TLE_LINE2":"2 47884  53.0542 211.0580 0001364  50.5091 309.6018 15.06404383121288","OBJECT_TYPE":"PAYLOAD","PERIAPSIS":"546.256","TIME_SYSTEM":"UTC","OBJECT_NAME":"STARLINK-2343"},{"MEAN_ELEMENT_THEORY":"SGP4","BSTAR":"0.00089258000000","TLE_LINE1":"1 47885U 21021AB  23137.62719745  .00013044  00000-0  89258-3 0  9992","EPOCH":"2023-05-17T15:03:09.859680","EPHEMERIS_TYPE":"0","REF_FRAME":"TEME","NORAD_CAT_ID":"47885","APOAPSIS":"548.015","ELEMENT_SET_NO":"999","TIME_SYSTEM":"UTC","PERIAPSIS":"546.316","OBJECT_NAME":"STARLINK-2344","OBJECT_TYPE":"PAYLOAD","OBJECT_ID":"2021-021AB","TLE_LINE2":"2 47885  53.0535 217.2784 0001227  88.2888 271.8242 15.06415674121335","SEMIMAJOR_AXIS":"6925.301","ECCENTRICITY":"0.00012270","INCLINATION":"53.0535","COUNTRY_CODE":"US","ARG_OF_PERICENTER":"88.2888","MEAN_ANOMALY":"271.8242","REV_AT_EPOCH":"12133","CENTER_NAME":"EARTH","LAUNCH_DATE":"2021-03-14","CLASSIFICATION_TYPE":"U","SITE":"AFETR","PERIOD":"95.591","MEAN_MOTION_DDOT":"0.0000000000000","GP_ID":"232042504","MEAN_MOTION":"15.06415674","MEAN_MOTION_DOT":"0.00013044","RA_OF_ASC_NODE":"217.2784","RCS_SIZE":"LARGE","DECAY_DATE":null,"FILE":"3910633"}];
